NOAA 15                 
1 25338U 98030A   24020.82064054  .00000325  00000+0  15264-3 0  9998
2 25338  98.5857  50.9342 0010998  43.0017 317.2021 14.26476387336286
NOAA 18                 
1 28654U 05018A   24020.80581023  .00000357  00000+0  21469-3 0  9993
2 28654  98.8897  98.9411 0015137 122.6204 237.6431 14.13105005962308
NOAA 19                 
1 33591U 09005A   24020.80755886  .00000309  00000+0  19040-3 0  9998
2 33591  99.0710  74.8977 0013627 354.4553   5.6465 14.12910348770675
METOP-B                 
1 38771U 12049A   24020.79531947  .00000244  00000+0  13141-3 0  9997
2 38771  98.6508  81.1999 0001714  97.9715 262.1657 14.21457155588467
SARAL                   
1 39086U 13009A   24020.57072342  .00000298  00000+0  12666-3 0  9999
2 39086  98.5461 207.7517 0002247  32.3933 327.7388 14.32331613569801
METOP-C                 
1 43689U 18087A   24020.76237064  .00000246  00000+0  13253-3 0  9995
2 43689  98.7027  82.0317 0003323 133.0478 227.0978 14.21498263270030
ANGELS                  
1 44876U 19092D   24020.46090892  .00008868  00000+0  36459-3 0  9995
2 44876  97.4737 209.0953 0011461 119.5504 240.6877 15.24345447226681
OTB-3-GAZELLE           
1 54023U 22127A   24020.56405437  .00000385  00000+0  13036-3 0  9991
2 54023  98.3358  18.2244 0012636 324.3742  35.6603 14.41982874 67707
EOS-6 (OCEANSAT-3)      
1 54361U 22158A   24020.83094916  .00000736  00000+0  21435-3 0  9998
2 54361  98.3522 119.8995 0001110  93.9906 266.1414 14.47004118 60810
